{
  "norad_id": 63397,
  "name": "TJS-16",
  "history": [
    {
      "epoch": "2026-03-28T18:31:59.892672Z",
      "apogee_km": 35808.06875893673,
      "perigee_km": 35765.2461936666,
      "latitude_deg": -0.023133583491272043,
      "longitude_deg": 160.5466190526468,
      "height_km": 35783.46509502856,
      "semi_major_axis_km": 42164.794476301664,
      "eccentricity": 0.0005078,
      "inclination_deg": 0.8913,
      "raan_deg": 81.7589,
      "arg_perigee_deg": 265.7162,
      "mean_anomaly_deg": 277.2944,
      "mean_motion_rev_day": 1.00271562
    }
  ]
}